! Propagated orbits
format  = 'OEF2.0'       ! file format
rectype = 'ML'           ! record type (1L/ML)
refsys  = ECLM J2000     ! default reference system
END_OF_HEADER
! Orbital elements of object K20S81E (Gauss(wN))
K20S81E
! Keplerian elements: a, e, i, long. node, arg. peric., mean anomaly
 KEP   1.1008303548821825E+01 0.871520130700892  19.6871756655679 340.6126485287991 323.4681159655320   3.0688342367274
 MJD     59129.235106341 TDT
 MAG   0.000  0.000
! Non-grav parameters: model used, actual number in use, dimension
 LSP   0  0    6
! RMS    2.16284-155   2.16284-155   8.63350-155   3.82064-160   4.02731-159   0.00000E+00
! EIG  -4.39312+130  -5.17941-120  -2.16022-155   2.16547-155   5.17941-120   4.39312+130
! WEA   0.00000  -0.70711   0.00000   0.00000  -0.70711  -0.00000
 COV   4.677856782965578-310  2.964393875047479-323  0.000000000000000E+00
 COV   3.983576046929351-308  1.019257427370492-320  3.623477446599702-320
 COV   4.677856782965578-310  1.446818695656353-310  3.973702292777153-308
 COV   1.425018720330532-318  3.973702336059613-308  7.453728347104996-309
 COV   5.729009091727490-307  1.613618399317511-320  2.276763728702954-306
 COV   1.460705081929645-319  6.966101311133269-308  2.276763701648422-306
 COV   1.621928089414915-317  2.282420948614705-306  0.000000000000000E+00
 NOR   2.121997814658158-314  4.677880274566498-310  8.164441273902126-312
 NOR   1.213466656950152-311  0.000000000000000E+00  0.000000000000000E+00
 NOR   1.778636325028488-322  8.164441273842839-312  8.164400279822938-312
 NOR   1.778636325028488-322  0.000000000000000E+00  0.000000000000000E+00
 NOR   2.117898852682965-313  0.000000000000000E+00  0.000000000000000E+00
 NOR   1.424956645823976-313  0.000000000000000E+00  0.000000000000000E+00
 NOR   0.000000000000000E+00  0.000000000000000E+00  0.000000000000000E+00
